TDRS 11                 
1 39070U 13004A   26115.81778578  .00000068  00000+0  00000+0 0  9995
2 39070   3.4446  30.3387 0005427   0.8207 302.9324  1.00264224 46162
TDRS 12                 
1 39504U 14004A   26115.70162655 -.00000282  00000+0  00000+0 0  9998
2 39504   3.9277  18.2080 0002026 247.6938 159.5013  1.00269748 43759
GPM-CORE                
1 39574U 14009C   26115.84191823  .00007552  00000+0  16612-3 0  9990
2 39574  64.9709 123.5395 0012228 260.3733  99.6026 15.44649623689720
MMS 1                   
1 40482U 15011A   26115.91668980 -.00000713  00000+0  00000+0 0  9998
2 40482  71.4225 349.4850 8368033 166.3956   6.2732  0.28188796  1359
MMS 2                   
1 40483U 15011B   26115.91668980 -.00000713  00000+0  00000+0 0  9999
2 40483  71.4227 349.4871 8369091 166.4017   6.2574  0.28183039  1358
MMS 3                   
1 40484U 15011C   26115.91668980 -.00000713  00000+0  00000+0 0  9990
2 40484  71.4255 349.4917 8368322 166.3960   6.2595  0.28183068  1358
MMS 4                   
1 40485U 15011D   26115.91668980 -.00000713  00000+0  00000+0 0  9991
2 40485  71.4225 349.4871 8367895 166.4038   6.2469  0.28182568  1350
TDRS 13                 
1 42915U 17047A   26115.84489189 -.00000112  00000+0  00000+0 0  9999
2 42915   3.4406   1.4335 0012823  98.4464  46.6585  1.00271797 31829
NOAA 20 (JPSS-1)        
1 43013U 17073A   26115.84180818  .00000067  00000+0  52739-4 0  9994
2 43013  98.7744  55.7767 0002108  73.3563 286.7844 14.19547502437042
