[{"OBJECT_NAME":"TDRS 11","OBJECT_ID":"2013-004A","EPOCH":"2026-04-25T19:37:36.691392","MEAN_MOTION":1.00264224,"ECCENTRICITY":0.0005427,"INCLINATION":3.4446,"RA_OF_ASC_NODE":30.3387,"ARG_OF_PERICENTER":0.8207,"MEAN_ANOMALY":302.9324,"EPHEMERIS_TYPE":0,"CLASSIFICATION_TYPE":"U","NORAD_CAT_ID":39070,"ELEMENT_SET_NO":999,"REV_AT_EPOCH":4616,"BSTAR":0,"MEAN_MOTION_DOT":6.8e-7,"MEAN_MOTION_DDOT":0},{"OBJECT_NAME":"TDRS 12","OBJECT_ID":"2014-004A","EPOCH":"2026-04-25T16:50:20.533920","MEAN_MOTION":1.00269748,"ECCENTRICITY":0.0002026,"INCLINATION":3.9277,"RA_OF_ASC_NODE":18.208,"ARG_OF_PERICENTER":247.6938,"MEAN_ANOMALY":159.5013,"EPHEMERIS_TYPE":0,"CLASSIFICATION_TYPE":"U","NORAD_CAT_ID":39504,"ELEMENT_SET_NO":999,"REV_AT_EPOCH":4375,"BSTAR":0,"MEAN_MOTION_DOT":-2.82e-6,"MEAN_MOTION_DDOT":0},{"OBJECT_NAME":"GPM-CORE","OBJECT_ID":"2014-009C","EPOCH":"2026-04-25T20:12:21.735072","MEAN_MOTION":15.44649623,"ECCENTRICITY":0.0012228,"INCLINATION":64.9709,"RA_OF_ASC_NODE":123.5395,"ARG_OF_PERICENTER":260.3733,"MEAN_ANOMALY":99.6026,"EPHEMERIS_TYPE":0,"CLASSIFICATION_TYPE":"U","NORAD_CAT_ID":39574,"ELEMENT_SET_NO":999,"REV_AT_EPOCH":68972,"BSTAR":0.00016612,"MEAN_MOTION_DOT":7.552e-5,"MEAN_MOTION_DDOT":0},{"OBJECT_NAME":"MMS 1","OBJECT_ID":"2015-011A","EPOCH":"2026-04-25T22:00:01.998720","MEAN_MOTION":0.28188796,"ECCENTRICITY":0.8368033,"INCLINATION":71.4225,"RA_OF_ASC_NODE":349.485,"ARG_OF_PERICENTER":166.3956,"MEAN_ANOMALY":6.2732,"EPHEMERIS_TYPE":0,"CLASSIFICATION_TYPE":"U","NORAD_CAT_ID":40482,"ELEMENT_SET_NO":999,"REV_AT_EPOCH":135,"BSTAR":0,"MEAN_MOTION_DOT":-7.13e-6,"MEAN_MOTION_DDOT":0},{"OBJECT_NAME":"MMS 2","OBJECT_ID":"2015-011B","EPOCH":"2026-04-25T22:00:01.998720","MEAN_MOTION":0.28183039,"ECCENTRICITY":0.8369091,"INCLINATION":71.4227,"RA_OF_ASC_NODE":349.4871,"ARG_OF_PERICENTER":166.4017,"MEAN_ANOMALY":6.2574,"EPHEMERIS_TYPE":0,"CLASSIFICATION_TYPE":"U","NORAD_CAT_ID":40483,"ELEMENT_SET_NO":999,"REV_AT_EPOCH":135,"BSTAR":0,"MEAN_MOTION_DOT":-7.13e-6,"MEAN_MOTION_DDOT":0},{"OBJECT_NAME":"MMS 3","OBJECT_ID":"2015-011C","EPOCH":"2026-04-25T22:00:01.998720","MEAN_MOTION":0.28183068,"ECCENTRICITY":0.8368322,"INCLINATION":71.4255,"RA_OF_ASC_NODE":349.4917,"ARG_OF_PERICENTER":166.396,"MEAN_ANOMALY":6.2595,"EPHEMERIS_TYPE":0,"CLASSIFICATION_TYPE":"U","NORAD_CAT_ID":40484,"ELEMENT_SET_NO":999,"REV_AT_EPOCH":135,"BSTAR":0,"MEAN_MOTION_DOT":-7.13e-6,"MEAN_MOTION_DDOT":0},{"OBJECT_NAME":"MMS 4","OBJECT_ID":"2015-011D","EPOCH":"2026-04-25T22:00:01.998720","MEAN_MOTION":0.28182568,"ECCENTRICITY":0.8367895,"INCLINATION":71.4225,"RA_OF_ASC_NODE":349.4871,"ARG_OF_PERICENTER":166.4038,"MEAN_ANOMALY":6.2469,"EPHEMERIS_TYPE":0,"CLASSIFICATION_TYPE":"U","NORAD_CAT_ID":40485,"ELEMENT_SET_NO":999,"REV_AT_EPOCH":135,"BSTAR":0,"MEAN_MOTION_DOT":-7.13e-6,"MEAN_MOTION_DDOT":0},{"OBJECT_NAME":"TDRS 13","OBJECT_ID":"2017-047A","EPOCH":"2026-04-25T20:16:38.659296","MEAN_MOTION":1.00271797,"ECCENTRICITY":0.0012823,"INCLINATION":3.4406,"RA_OF_ASC_NODE":1.4335,"ARG_OF_PERICENTER":98.4464,"MEAN_ANOMALY":46.6585,"EPHEMERIS_TYPE":0,"CLASSIFICATION_TYPE":"U","NORAD_CAT_ID":42915,"ELEMENT_SET_NO":999,"REV_AT_EPOCH":3182,"BSTAR":0,"MEAN_MOTION_DOT":-1.12e-6,"MEAN_MOTION_DDOT":0},{"OBJECT_NAME":"NOAA 20 (JPSS-1)","OBJECT_ID":"2017-073A","EPOCH":"2026-04-25T20:12:12.226752","MEAN_MOTION":14.19547502,"ECCENTRICITY":0.0002108,"INCLINATION":98.7744,"RA_OF_ASC_NODE":55.7767,"ARG_OF_PERICENTER":73.3563,"MEAN_ANOMALY":286.7844,"EPHEMERIS_TYPE":0,"CLASSIFICATION_TYPE":"U","NORAD_CAT_ID":43013,"ELEMENT_SET_NO":999,"REV_AT_EPOCH":43704,"BSTAR":5.2739e-5,"MEAN_MOTION_DOT":6.7e-7,"MEAN_MOTION_DDOT":0}]
